format  = 'OEF1.1'       ! file format
rectype = '1L'           ! record type (1L/ML)
elem    = 'KEP'          ! type of orbital elements
refsys  = ECLM J2000     ! default reference system
END_OF_HEADER
! Name, Epoch(MJD), a, e, i, long. node, arg. peric., mean anomaly
'1'            51700.000000  2.766931463546 0.0785262511   10.5834655   80.4915719   73.9432779   39.4577274  3.28  0.12
'2'            51700.000000  2.772619441109 0.2297178635   34.8452509  173.1984861  310.2836933   26.1467111  3.93  0.11
'3'            51700.000000  2.667635290911 0.2585397071   12.9678996  170.1688763  248.0668365  275.4113076  5.17  0.32
'4'            51700.000000  2.361261366272 0.0899195733    7.1343106  103.9499905  149.5510882   23.2910058  3.36  0.32
'5'            51700.000000  2.574148093203 0.1923621614    5.3676918  141.7009294  357.6813335   76.7484364  7.22  0.15
'6'            51700.000000  2.424460802683 0.2020495729   14.7686496  138.8624533  238.9201014   86.7088546  5.65  0.24
'7'            51700.000000  2.385547743816 0.2303450365    5.5240499  259.8713037  145.1088266   94.9816310  5.45  0.15
'8'            51700.000000  2.201324776053 0.1562600869    5.8860723  111.0407202  285.2050703  272.7746354  6.40  0.28
'9'            51700.000000  2.386288032780 0.1218017433    5.5786202   69.0035821    5.8724111  232.7465097  6.15  0.17
'10'           51700.000000  3.138303830032 0.1194206928    3.8429828  283.6563098  314.3282812    6.8172261  5.31  0.15
'11'           51700.000000  2.452877430470 0.0990599210    4.6218786  125.6564490  194.3270114  309.8938363  6.33  0.15
'12'           51700.000000  2.334542620652 0.2186348190    8.3691981  235.6295759   69.4093845   26.5236804  7.07  0.22
'13'           51700.000000  2.575861051904 0.0845657432   16.5412995   43.3246635   80.6866873  342.9723981  6.63  0.15
'14'           51700.000000  2.585062129130 0.1673185733    9.1067458   86.5088346   96.5112818  330.7925146  6.22  0.15
'15'           51700.000000  2.644143402015 0.1860980106   11.7465197  293.5097548   97.0073287  142.7695893  5.21  0.23
'16'           51700.000000  2.922327091036 0.1387495829    3.0927751  150.4562560  229.0680035    6.3403588  5.88  0.20
'17'           51700.000000  2.469759380092 0.1359685648    5.5858746  125.6416584  135.5434791  352.6090784  7.40  0.15
'18'           51700.000000  2.295213190281 0.2180138627   10.1284801  150.5794962  227.6689619  112.3436116  6.46  0.25
'19'           51700.000000  2.442670006758 0.1580943918    1.5720509  211.4915508  182.0065929  215.1819071  6.95  0.10
'20'           51700.000000  2.409551130127 0.1424596183    0.7058429  206.6008566  255.6066137   99.8421777  6.35  0.25
